SL-16 R/B               
1 25400U 98043G   26001.79527308  .00000177  00000+0  92979-4 0  9999
2 25400  98.8151 314.7283 0009354 203.0681 157.0079 14.26031368429451
SL-16 R/B               
1 25407U 98045B   26002.10723559 -.00000012  00000+0  17882-4 0  9999
2 25407  71.0127 321.5937 0005634 142.3269 217.8250 14.16181766417674
ISS (ZARYA)             
1 25544U 98067A   26001.79090475  .00014103  00000+0  26338-3 0  9993
2 25544  51.6329  43.1850 0007502 328.5908  31.4631 15.49013666545966
CZ-4B R/B               
1 25732U 99025C   26002.13889613  .00000142  00000+0  89222-4 0  9996
2 25732  98.6739  47.9597 0037229 174.8904 251.0713 14.18249337378739
OKEAN-O                 
1 25860U 99039A   26001.73171713  .00001538  00000+0  20921-3 0  9993
2 25860  97.9575  62.2580 0001326 114.0652 246.0699 14.80202605424485
SL-16 R/B               
1 25861U 99039B   26002.11284372  .00001170  00000+0  15542-3 0  9998
2 25861  98.0096  61.2625 0016045 111.7689 248.5233 14.81621778427002
DELTA 2 R/B             
1 25876U 99041E   26002.03526858  .00003043  00000+0  52717-3 0  9992
2 25876  51.7593 207.4249 0504188 151.5869 211.3565 14.11476195353619
HELIOS 1B               
1 25977U 99064A   26002.12074984  .00004015  00000+0  45055-3 0  9994
2 25977  98.1754 262.3910 0000439  41.4099 318.7149 14.87381483675369
TERRA                   
1 25994U 99068A   26002.13766078  .00000906  00000+0  19403-3 0  9993
2 25994  97.9720  58.0706 0003120  52.9730 332.1345 14.60929196385366
SL-16 R/B               
1 26070U 00006B   26002.10534053  .00000286  00000+0  16944-3 0  9994
2 26070  71.0015 237.8378 0018797 281.2890  78.6121 14.15813922339131
ENVISAT                 
1 27386U 02009A   25365.95019499  .00000264  00000+0  99422-4 0  9995
2 27386  98.3626 316.2065 0001107  88.1807 295.1197 14.39007536249430
